[
  { "id": 1, "name": "New York", "zipCode": "10001" },
  { "id": 2, "name": "Los Angeles", "zipCode": "90001" },
  { "id": 3, "name": "Chicago", "zipCode": "60601" },
  { "id": 4, "name": "Houston", "zipCode": "77001" },
  { "id": 5, "name": "Phoenix", "zipCode": "85001" },
  { "id": 6, "name": "Philadelphia", "zipCode": "19101" },
  { "id": 7, "name": "San Antonio", "zipCode": "78201" },
  { "id": 8, "name": "San Diego", "zipCode": "92101" },
  { "id": 9, "name": "Dallas", "zipCode": "75201" },
  { "id": 10, "name": "San Jose", "zipCode": "95101" },
  { "id": 11, "name": "Austin", "zipCode": "73301" },
  { "id": 12, "name": "Jacksonville", "zipCode": "32201" },
  { "id": 13, "name": "San Francisco", "zipCode": "94101" },
  { "id": 14, "name": "Indianapolis", "zipCode": "46201" },
  { "id": 15, "name": "Columbus", "zipCode": "43201" },
  { "id": 16, "name": "Fort Worth", "zipCode": "76101" },
  { "id": 17, "name": "Charlotte", "zipCode": "28201" },
  { "id": 18, "name": "Seattle", "zipCode": "98101" },
  { "id": 19, "name": "Denver", "zipCode": "80201" },
  { "id": 20, "name": "Washington", "zipCode": "20001" },
  { "id": 21, "name": "Boston", "zipCode": "02101" },
  { "id": 22, "name": "El Paso", "zipCode": "79901" },
  { "id": 23, "name": "Nashville", "zipCode": "37201" },
  { "id": 24, "name": "Baltimore", "zipCode": "21201" }
]
